CAS-2T & KS-1Q          
1 41847U 16066G   20161.13527455  .00000069  00000-0  21792-4 0  9995
2 41847  98.6542 211.5665 0364534 253.6790 102.4023 14.38068777188227
NAYIF-1 (EO-88)         
1 42017U 17008BX  20161.28961065  .00001245  00000-0  50490-4 0  9991
2 42017  97.3601 228.9708 0006141   7.8263 352.3071 15.26482722184302
MAX VALIER SAT          
1 42778U 17036P   20161.45610284  .00000817  00000-0  38006-4 0  9992
2 42778  97.3053 215.3131 0013641  55.9576 304.2954 15.22611142164514
RADFXSAT (FOX-1B)       
1 43017U 17073E   20160.79738024  .00000614  00000-0  52358-4 0  9990
2 43017  97.7235  73.3674 0258535  78.6199 284.3934 14.78927483137881
FOX-1D (AO-92)          
1 43137U 18004AC  20160.75220387  .00000911  00000-0  40405-4 0  9992
2 43137  97.4460 231.9719 0010901  87.4680 272.7805 15.24112103133723
DIWATA-2B               
1 43678U 18084H   20161.49149729  .00000154  00000-0  21039-4 0  9993
2 43678  97.8827 279.8948 0009460 195.8764 164.2172 14.91632220 87836
ES'HAIL 2               
1 43700U 18090A   20160.80275095  .00000135  00000-0  00000+0 0  9995
2 43700   0.0176 356.0828 0001521 101.7465 114.5703  1.00270853  5861
FOX-1CLIFF (AO-95)      
1 43770U 18099N   20160.74050652  .00000610  00000-0  60995-4 0  9996
2 43770  97.7060 232.2728 0013604 221.2630 138.7563 14.94984970 82613
ITASAT 1                
1 43786U 18099AE  20160.80632257  .00000528  00000-0  53036-4 0  9993
2 43786  97.7075 232.7508 0014403 214.5811 145.4474 14.95324387 82641
JY1SAT (JO-97)          
1 43803U 18099AX  20161.08951185  .00000631  00000-0  62079-4 0  9990
2 43803  97.7037 232.8500 0014247 213.6472 146.3845 14.95503433 82688
PSAT2 (NO-104)          
1 44354U 19036R   20161.09154907  .00005896  00000-0  82689-4 0  9999
2 44354  28.5330  75.5059 0364540 221.7298 135.4941 15.03401759 52556
BRICSAT2 (NO-103)       
1 44355U 19036S   20161.06271005  .00010346  00000-0  14195-3 0  9998
2 44355  28.5334  67.4626 0343750 234.8209 121.9727 15.08664951 52639
JAISAT-1                
1 44419U 19038F   20160.89023964  .00000675  00000-0  42012-4 0  9994
2 44419  97.5380 122.5866 0022129 156.1081 204.1182 15.12770802 51304
DUCHIFAT-3              
1 44854U 19089C   20161.30166578  .00000283  00000-0  29298-4 0  9995
2 44854  36.9649 146.5262 0008889 351.1778   8.8808 14.99063958 27077
RS-44 & BREEZE-KM R/B   
1 44909U 19096E   20161.07079651  .00000010  00000-0  62456-6 0  9996
2 44909  82.5216   0.8862 0216376 246.0097 111.8218 12.79707818 21116
ORBITAL FACTORY 2 (OF-2)
1 45113U 19071C   20161.40248775  .00001670  00000-0  62564-4 0  9990
2 45113  51.6454  42.4400 0013412  31.2267 328.9509 15.33328819 19893
HUSKYSAT-1              
1 45119U 19071J   20161.38202862  .00001084  00000-0  44413-4 0  9992
2 45119  51.6451  42.3040 0012627  27.7277 332.4376 15.33547344 19880
